{
  "type": "FeatureCollection",
  "features": [
    {
      "type": "Feature",
      "properties": {
        "norad_id": 33901,
        "name": "COSMOS 2251 DEB",
        "group": "cosmos-2251-debris",
        "lat": 33.17054573416209,
        "lon": 42.266977599101686,
        "alt_km": 526.0071709980302,
        "timestamp": "2025-12-21T05:44:51.980260+00:00",
        "meta_object_name": "COSMOS 2251 DEB",
        "meta_object_id": "1993-036DE",
        "meta_epoch": "2025-12-20T20:05:46.640832",
        "meta_mean_motion": 15.16726568,
        "meta_eccentricity": 0.00302682,
        "meta_inclination": 73.7748,
        "meta_ra_of_asc_node": 32.1457,
        "meta_arg_of_pericenter": 163.4083,
        "meta_mean_anomaly": 196.811,
        "meta_ephemeris_type": 0,
        "meta_classification_type": "U",
        "meta_norad_cat_id": 33901,
        "meta_element_set_no": 999,
        "meta_rev_at_epoch": 89636,
        "meta_bstar": 0.0017870279,
        "meta_mean_motion_dot": 0.00035592,
        "meta_mean_motion_ddot": 0,
        "tle_line1": "1 33901U 93036DE  25354.83734538  .00035592  00000+0  17870-2 0  9995",
        "tle_line2": "2 33901  73.7748  32.1457 0030268 163.4083 196.8110 15.16726568896365"
      },
      "geometry": {
        "type": "Point",
        "coordinates": [
          42.266977599101686,
          33.17054573416209
        ]
      }
    },
    {
      "type": "Feature",
      "properties": {
        "norad_id": 33905,
        "name": "COSMOS 2251 DEB",
        "group": "cosmos-2251-debris",
        "lat": 23.48227845484423,
        "lon": 113.69705934179777,
        "alt_km": 737.857586543646,
        "timestamp": "2025-12-21T05:44:51.980270+00:00",
        "meta_object_name": "COSMOS 2251 DEB",
        "meta_object_id": "1993-036DJ",
        "meta_epoch": "2025-12-20T20:59:38.107968",
        "meta_mean_motion": 14.354111,
        "meta_eccentricity": 0.00583106,
        "meta_inclination": 73.8865,
        "meta_ra_of_asc_node": 301.5866,
        "meta_arg_of_pericenter": 189.3419,
        "meta_mean_anomaly": 242.3584,
        "meta_ephemeris_type": 0,
        "meta_classification_type": "U",
        "meta_norad_cat_id": 33905,
        "meta_element_set_no": 999,
        "meta_rev_at_epoch": 87804,
        "meta_bstar": 0.00039364524,
        "meta_mean_motion_dot": 1.125e-05,
        "meta_mean_motion_ddot": 0,
        "tle_line1": "1 33905U 93036DJ  25354.87474662  .00001125  00000+0  39365-3 0  9991",
        "tle_line2": "2 33905  73.8865 301.5866 0058310 189.3419 242.3584 14.35411100878045"
      },
      "geometry": {
        "type": "Point",
        "coordinates": [
          113.69705934179777,
          23.48227845484423
        ]
      }
    },
    {
      "type": "Feature",
      "properties": {
        "norad_id": 33906,
        "name": "COSMOS 2251 DEB",
        "group": "cosmos-2251-debris",
        "lat": -13.795984253918562,
        "lon": -58.71129550854986,
        "alt_km": 680.8492488645934,
        "timestamp": "2025-12-21T05:44:51.980280+00:00",
        "meta_object_name": "COSMOS 2251 DEB",
        "meta_object_id": "1993-036DK",
        "meta_epoch": "2025-12-20T20:02:37.819680",
        "meta_mean_motion": 14.57214229,
        "meta_eccentricity": 0.00369077,
        "meta_inclination": 74.0303,
        "meta_ra_of_asc_node": 306.0889,
        "meta_arg_of_pericenter": 334.5785,
        "meta_mean_anomaly": 50.8469,
        "meta_ephemeris_type": 0,
        "meta_classification_type": "U",
        "meta_norad_cat_id": 33906,
        "meta_element_set_no": 999,
        "meta_rev_at_epoch": 88126,
        "meta_bstar": 0.0011944679,
        "meta_mean_motion_dot": 5.42e-05,
        "meta_mean_motion_ddot": 0,
        "tle_line1": "1 33906U 93036DK  25354.83515995  .00005420  00000+0  11945-2 0  9998",
        "tle_line2": "2 33906  74.0303 306.0889 0036907 334.5785  50.8469 14.57214229881268"
      },
      "geometry": {
        "type": "Point",
        "coordinates": [
          -58.71129550854986,
          -13.795984253918562
        ]
      }
    },
    {
      "type": "Feature",
      "properties": {
        "norad_id": 33907,
        "name": "COSMOS 2251 DEB",
        "group": "cosmos-2251-debris",
        "lat": -42.9578685771572,
        "lon": -146.36273452651346,
        "alt_km": 867.9225414541852,
        "timestamp": "2025-12-21T05:44:51.980291+00:00",
        "meta_object_name": "COSMOS 2251 DEB",
        "meta_object_id": "1993-036DL",
        "meta_epoch": "2025-12-20T08:39:03.581568",
        "meta_mean_motion": 14.30568878,
        "meta_eccentricity": 0.01118938,
        "meta_inclination": 74.0693,
        "meta_ra_of_asc_node": 19.8097,
        "meta_arg_of_pericenter": 73.0053,
        "meta_mean_anomaly": 306.2172,
        "meta_ephemeris_type": 0,
        "meta_classification_type": "U",
        "meta_norad_cat_id": 33907,
        "meta_element_set_no": 999,
        "meta_rev_at_epoch": 86689,
        "meta_bstar": 0.0011890274,
        "meta_mean_motion_dot": 3.297e-05,
        "meta_mean_motion_ddot": 0,
        "tle_line1": "1 33907U 93036DL  25354.36045812  .00003297  00000+0  11890-2 0  9992",
        "tle_line2": "2 33907  74.0693  19.8097 0111893  73.0053 306.2172 14.30568878866896"
      },
      "geometry": {
        "type": "Point",
        "coordinates": [
          -146.36273452651346,
          -42.9578685771572
        ]
      }
    },
    {
      "type": "Feature",
      "properties": {
        "norad_id": 33908,
        "name": "COSMOS 2251 DEB",
        "group": "cosmos-2251-debris",
        "lat": -73.73969448122591,
        "lon": 94.59286117767542,
        "alt_km": 781.8685560248477,
        "timestamp": "2025-12-21T05:44:51.980301+00:00",
        "meta_object_name": "COSMOS 2251 DEB",
        "meta_object_id": "1993-036DM",
        "meta_epoch": "2025-12-20T19:57:01.536192",
        "meta_mean_motion": 14.07396598,
        "meta_eccentricity": 0.02225081,
        "meta_inclination": 73.8363,
        "meta_ra_of_asc_node": 191.407,
        "meta_arg_of_pericenter": 213.4269,
        "meta_mean_anomaly": 145.2659,
        "meta_ephemeris_type": 0,
        "meta_classification_type": "U",
        "meta_norad_cat_id": 33908,
        "meta_element_set_no": 999,
        "meta_rev_at_epoch": 85587,
        "meta_bstar": 0.0013495239,
        "meta_mean_motion_dot": 2.819e-05,
        "meta_mean_motion_ddot": 0,
        "tle_line1": "1 33908U 93036DM  25354.83126778  .00002819  00000+0  13495-2 0  9998",
        "tle_line2": "2 33908  73.8363 191.4070 0222508 213.4269 145.2659 14.07396598855870"
      },
      "geometry": {
        "type": "Point",
        "coordinates": [
          94.59286117767542,
          -73.73969448122591
        ]
      }
    },
    {
      "type": "Feature",
      "properties": {
        "norad_id": 33911,
        "name": "COSMOS 2251 DEB",
        "group": "cosmos-2251-debris",
        "lat": -55.675399062899096,
        "lon": 120.60723672758658,
        "alt_km": 659.1998794945039,
        "timestamp": "2025-12-21T05:44:51.980312+00:00",
        "meta_object_name": "COSMOS 2251 DEB",
        "meta_object_id": "1993-036DQ",
        "meta_epoch": "2025-12-20T05:51:39.580704",
        "meta_mean_motion": 14.75026085,
        "meta_eccentricity": 0.00140548,
        "meta_inclination": 74.0899,
        "meta_ra_of_asc_node": 147.2383,
        "meta_arg_of_pericenter": 82.4401,
        "meta_mean_anomaly": 335.6844,
        "meta_ephemeris_type": 0,
        "meta_classification_type": "U",
        "meta_norad_cat_id": 33911,
        "meta_element_set_no": 999,
        "meta_rev_at_epoch": 88755,
        "meta_bstar": 0.0013640753,
        "meta_mean_motion_dot": 9.177e-05,
        "meta_mean_motion_ddot": 0,
        "tle_line1": "1 33911U 93036DQ  25354.24420811  .00009177  00000+0  13641-2 0  9999",
        "tle_line2": "2 33911  74.0899 147.2383 0014054  82.4401 335.6844 14.75026085887551"
      },
      "geometry": {
        "type": "Point",
        "coordinates": [
          120.60723672758658,
          -55.675399062899096
        ]
      }
    },
    {
      "type": "Feature",
      "properties": {
        "norad_id": 33912,
        "name": "COSMOS 2251 DEB",
        "group": "cosmos-2251-debris",
        "lat": -22.60210572050712,
        "lon": 0.5588765184764595,
        "alt_km": 719.1022058462986,
        "timestamp": "2025-12-21T05:44:51.980322+00:00",
        "meta_object_name": "COSMOS 2251 DEB",
        "meta_object_id": "1993-036DR",
        "meta_epoch": "2025-12-20T22:55:10.785216",
        "meta_mean_motion": 14.51936444,
        "meta_eccentricity": 0.00113379,
        "meta_inclination": 74.0325,
        "meta_ra_of_asc_node": 174.249,
        "meta_arg_of_pericenter": 253.1694,
        "meta_mean_anomaly": 263.8909,
        "meta_ephemeris_type": 0,
        "meta_classification_type": "U",
        "meta_norad_cat_id": 33912,
        "meta_element_set_no": 999,
        "meta_rev_at_epoch": 88552,
        "meta_bstar": 0.000509908,
        "meta_mean_motion_dot": 2.031e-05,
        "meta_mean_motion_ddot": 0,
        "tle_line1": "1 33912U 93036DR  25354.95498594  .00002031  00000+0  50991-3 0  9993",
        "tle_line2": "2 33912  74.0325 174.2490 0011337 253.1694 263.8909 14.51936444885529"
      },
      "geometry": {
        "type": "Point",
        "coordinates": [
          0.5588765184764595,
          -22.60210572050712
        ]
      }
    }
  ]
}